address,address2,state,postalcode,country
725 High School Avenue Columbia, Marion County, MS, 39429, USA
155 Robinson Street Holly Springs, Marshall County, MS, 38635, USA
North Park Avenue, Marion County, MS, 39429, USA
485 Robinson Street Friars Point, Coahoma County, MS, 38631, USA
895 Oak Street Lumberton, Lamar County, MS, 39455, USA
857 North Park Avenue Columbia, Marion County, MS, 39429, USA
804 East Franklin Street Carthage, Leake County, MS, 39051, USA
141 Brandon Avenue Plainview Richland, Rankin County, MS, 39218, USA
High School Avenue Columbia, Marion County, MS, 39429, USA
987 High School Avenue Columbia, Marion County, MS, 39429, USA
737 East Franklin Street Carthage, Leake County, MS, 39051, USA
Brandon Avenue Plainview Richland, Rankin County, MS, 39218, USA
633 Brandon Avenue Friends of West Jackson Jackson, Hinds County, MS, 39209, USA
High School Avenue Columbia, Marion County, MS, 39429, USA
867 Main Street Caledonia, Lowndes County, MS, 39740, USA
549 North Park Avenue Columbia, Marion County, MS, 39429, USA
890 Main Street Walnut, Tippah County, MS, 38683, USA
706 North Park Avenue Columbia, Marion County, MS, 39429, USA
929 East Franklin Street Carthage, Leake County, MS, 39051, USA
Brandon Avenue Plainview Richland, Rankin County, MS, 39218, USA
Robinson Street Sunflower Booneville, Prentiss County, MS, 38829, USA
801 High School Avenue Columbia, Marion County, MS, 39429, USA
High School Avenue Columbia, Marion County, MS, 39429, USA
706 North Park Avenue Columbia, Marion County, MS, 39429, USA
604 Brandon Avenue Friends of West Jackson Jackson, Hinds County, MS, 39209, USA
860 High School Avenue Columbia, Marion County, MS, 39429, USA
710 Maple Avenue Heidelberg, Jasper County, MS, 39439, USA
North Park Avenue, Marion County, MS, 39429, USA
541 Robinson Street New Hebron, Lawrence County, MS, 39140, USA
261 Oak Street Hickory Flat, Benton County, MS, 38633, USA
946 High School Avenue Columbia, Marion County, MS, 39429, USA
Robinson Street Sunflower Booneville, Prentiss County, MS, 38829, USA
523 Maple Avenue Clarksdale, Coahoma County, MS, 38614, USA
213 Robinson Street Sunflower Booneville, Prentiss County, MS, 38829, USA
236 Maple Avenue Gwin Tchula, Holmes County, MS, 39169, USA
199 South Pearl Street Natchez, Adams County, MS, 39120, USA
526 Robinson Street New Hebron, Lawrence County, MS, 39140, USA
763 Main Street Caledonia, Lowndes County, MS, 39740, USA
833 South Pearl Street Iuka, Tishomingo County, MS, 38852, USA
High School Avenue Columbia, Marion County, MS, 39429, USA
165 Robinson Street Holly Springs, Marshall County, MS, 38635, USA
Brandon Avenue Friends of West Jackson Jackson, Hinds County, MS, 39209, USA
294 Maple Avenue Gwin Tchula, Holmes County, MS, 39169, USA
